     2.100          NAVIGATION                              RINEX VERSION / TYPE
fic2rin                                 04/09/2014 00:23:21 PGM / RUN BY / DATE
                                                            END OF HEADER
11 14  4  8 22  0  0.0 -.479043461382D-03 -.318323145621D-11  .000000000000D+00
     .100000000000D+03 -.557812500000D+02  .579024118679D-08 -.214962058417D+01
    -.281259417534D-05  .148467506515D-01  .887177884579D-05  .515370508766D+04
     .252000000000D+06  .249594449997D-06 -.113878819451D+01 -.558793544769D-07
     .890151790532D+00  .167156250000D+03  .127396574858D+01 -.840749306298D-08
    -.160720980388D-10  .100000000000D+01  .178700000000D+04  .000000000000D+00
     .340000000000D+01  .000000000000D+00 -.116415321827D-07  .100000000000D+03
     .244806000000D+06  .400000000000D+01
12 14  4  8 22  0  0.0  .197371002287D-03  .238742359215D-11  .000000000000D+00
     .490000000000D+02  .134687500000D+02  .409659921123D-08 -.273729948676D+01
     .633299350739D-06  .505557609722D-02  .542402267456D-05  .515364812088D+04
     .252000000000D+06 -.633299350739D-07 -.287911889957D+01 -.150874257088D-06
     .987374676736D+00  .285750000000D+03  .384788088860D+00 -.791890128260D-08
     .885751180806D-10  .100000000000D+01  .178700000000D+04  .000000000000D+00
     .240000000000D+01  .000000000000D+00 -.121071934700D-07  .490000000000D+02
     .244806000000D+06  .400000000000D+01
13 14  4  8 22  0  0.0  .117472372949D-04 -.397903932026D-11  .000000000000D+00
     .800000000000D+02 -.634375000000D+01  .425482008748D-08  .105073930122D-01
    -.458210706711D-06  .536172231659D-02  .738911330700D-05  .515360554695D+04
     .252000000000D+06 -.745058059692D-08  .137709572097D+01 -.949949026108D-07
     .977842438583D+00  .243625000000D+03  .222047926691D+01 -.802497712965D-08
    -.196793911542D-09  .100000000000D+01  .178700000000D+04  .000000000000D+00
     .240000000000D+01  .000000000000D+00 -.111758708954D-07  .800000000000D+02
     .244806000000D+06  .400000000000D+01
15 14  4  8 22  0  0.0 -.172810163349D-03 -.216004991671D-11  .000000000000D+00
     .440000000000D+02 -.750000000000D+00  .520557397591D-08 -.257905615307D+00
     .763684511185D-07  .624015857466D-02  .639818608761D-05  .515367086601D+04
     .252000000000D+06  .726431608200D-07  .123511059611D+01  .447034835815D-07
     .937067743033D+00  .242125000000D+03  .273795967535D+00 -.851499754097D-08
    -.137148569931D-09  .100000000000D+01  .178700000000D+04  .000000000000D+00
     .240000000000D+01  .000000000000D+00 -.102445483208D-07  .440000000000D+02
     .244806000000D+06  .400000000000D+01
16 14  4  8 22  0  0.0 -.224104616791D-03  .170530256582D-11  .000000000000D+00
     .840000000000D+02  .215312500000D+02  .421874715632D-08  .137384738160D+01
     .144354999065D-05  .770786509383D-02  .524520874023D-05  .515356584549D+04
     .252000000000D+06  .372529029846D-07 -.286059471548D+01  .894069671631D-07
     .987982469458D+00  .291468750000D+03  .174250849562D+00 -.809569436102D-08
     .357157734196D-12  .100000000000D+01  .178700000000D+04  .000000000000D+00
     .240000000000D+01  .000000000000D+00 -.977888703346D-08  .840000000000D+02
     .244806000000D+06  .400000000000D+01
17 14  4  8 22  0  0.0 -.834013335407D-04 -.318323145621D-11  .000000000000D+00
     .340000000000D+02 -.579687500000D+02  .451947396852D-08  .403883630231D+00
    -.292994081974D-05  .927892816253D-02  .627338886261D-05  .515357102966D+04
     .252000000000D+06 -.139698386192D-06 -.182810237976D+01  .875443220139D-07
     .967914577642D+00  .265187500000D+03 -.210471593922D+01 -.823962892790D-08
    -.243938732456D-09  .100000000000D+01  .178700000000D+04  .000000000000D+00
     .240000000000D+01  .000000000000D+00 -.102445483208D-07  .340000000000D+02
     .244806000000D+06  .400000000000D+01
18 14  4  8 22  0  0.0  .312061049044D-03  .227373675443D-11  .000000000000D+00
     .340000000000D+02  .262500000000D+02  .533200781381D-08  .203697983463D+01
     .127591192722D-05  .150353122735D-01  .696070492268D-05  .515368137550D+04
     .252000000000D+06 -.782310962677D-07  .215935742019D+00 -.378116965294D-06
     .926393812889D+00  .225781250000D+03 -.204922333543D+01 -.839249243814D-08
     .240009997380D-09  .100000000000D+01  .178700000000D+04  .000000000000D+00
     .240000000000D+01  .000000000000D+00 -.107102096081D-07  .340000000000D+02
     .244806000000D+06  .400000000000D+01
19 14  4  8 22  0  0.0 -.449843704700D-03 -.227373675443D-11  .000000000000D+00
     .550000000000D+02 -.699375000000D+02  .457661920599D-08 -.356242618958D+00
    -.372156500816D-05  .101579759503D-01  .652670860291D-05  .515359807777D+04
     .252000000000D+06  .139698386192D-06 -.177711209361D+01  .130385160446D-06
     .965035629470D+00  .254093750000D+03  .411776150804D+00 -.831034615927D-08
    -.298226708054D-09  .100000000000D+01  .178700000000D+04  .000000000000D+00
     .240000000000D+01  .000000000000D+00 -.149011611938D-07  .550000000000D+02
     .244806000000D+06  .400000000000D+01
20 14  4  8 22  0  0.0  .177787616849D-03  .363797880709D-11  .000000000000D+00
     .121000000000D+03  .333437500000D+02  .526450500205D-08  .259607811925D+01
     .173598527908D-05  .585063861217D-02  .696070492268D-05  .515353624535D+04
     .252000000000D+06  .670552253723D-07  .162826846209D+00 -.745058059692D-08
     .927377341492D+00  .225781250000D+03  .131458134008D+01 -.832641825731D-08
     .251439044874D-09  .100000000000D+01  .178700000000D+04  .000000000000D+00
     .240000000000D+01  .000000000000D+00 -.791624188423D-08  .121000000000D+03
     .244806000000D+06  .400000000000D+01
21 14  4  8 22  0  0.0 -.354196876287D-03 -.227373675443D-11  .000000000000D+00
     .520000000000D+02 -.196562500000D+02  .478591363823D-08  .302984697877D+01
    -.117346644402D-05  .213574087247D-01  .100918114185D-04  .515378203773D+04
     .252000000000D+06  .117346644402D-06 -.829225603249D+00 -.186264514923D-06
     .932268751456D+00  .164875000000D+03 -.204109976157D+01 -.781389690874D-08
     .982183769039D-10  .100000000000D+01  .178700000000D+04  .000000000000D+00
     .240000000000D+01  .000000000000D+00 -.111758708954D-07  .520000000000D+02
     .244806000000D+06  .400000000000D+01
22 14  4  8 22  0  0.0  .225449912250D-03  .272848410532D-11  .000000000000D+00
     .420000000000D+02  .301562500000D+02  .552094425520D-08  .148508821070D+01
     .157579779625D-05  .702224054839D-02  .690110027790D-05  .515372588158D+04
     .252000000000D+06 -.154599547386D-06  .217915478334D+00 -.577419996262D-07
     .924164018524D+00  .226718750000D+03 -.206363461018D+01 -.861750181068D-08
     .176078762959D-09  .100000000000D+01  .178700000000D+04  .000000000000D+00
     .240000000000D+01  .000000000000D+00 -.172294676304D-07  .420000000000D+02
     .244806000000D+06  .400000000000D+01
23 14  4  8 22  0  0.0 -.107632949948D-04 -.318323145621D-11  .000000000000D+00
     .540000000000D+02 -.393750000000D+01  .489806116677D-08 -.683095156649D+00
    -.115483999252D-06  .910022133030D-02  .667385756969D-05  .515356530762D+04
     .252000000000D+06  .195577740669D-06  .128107275529D+01  .223517417908D-07
     .952098853253D+00  .242781250000D+03 -.279824403951D+01 -.834070456668D-08
    -.170364239212D-09  .100000000000D+01  .178700000000D+04  .000000000000D+00
     .240000000000D+01  .000000000000D+00 -.200234353542D-07  .540000000000D+02
     .244806000000D+06  .400000000000D+01
24 14  4  8 22  0  0.0 -.263527035713D-04 -.682121026330D-12  .000000000000D+00
     .108000000000D+03  .291562500000D+02  .464126475588D-08 -.146475673030D+01
     .143237411976D-05  .203558790963D-02  .827573239803D-05  .515374199486D+04
     .252000000000D+06  .242143869400D-07  .230833317516D+01 -.167638063431D-07
     .957092066223D+00  .218593750000D+03  .311524695020D+00 -.810462330438D-08
     .167864135072D-10  .100000000000D+01  .178700000000D+04  .000000000000D+00
     .240000000000D+01  .000000000000D+00  .325962901115D-08  .108000000000D+03
     .244806000000D+06  .400000000000D+01
25 14  4  8 22  0  0.0  .212150625885D-04  .113686837722D-11  .000000000000D+00
     .360000000000D+02  .195312500000D+02  .433375194674D-08  .276638266536D+01
     .936910510063D-06  .344650540501D-02  .547803938389D-05  .515362962341D+04
     .252000000000D+06 -.167638063431D-07 -.292096777929D+01 -.540167093277D-07
     .976110719547D+00  .281312500000D+03  .633205429628D+00 -.801319092442D-08
     .116076263614D-09  .100000000000D+01  .178700000000D+04  .000000000000D+00
     .240000000000D+01  .000000000000D+00  .558793544769D-08  .360000000000D+02
     .244806000000D+06  .400000000000D+01
26 14  4  8 22  0  0.0  .114512164146D-03 -.112549969344D-10  .000000000000D+00
     .590000000000D+02  .525000000000D+01  .442625579989D-08 -.788443498019D+00
     .609084963799D-06  .214869385818D-01  .756420195103D-05  .515368885803D+04
     .252000000000D+06 -.193715095520D-06  .136852855232D+01  .350177288055D-06
     .975241281000D+00  .248750000000D+03  .127579413139D+01 -.830856037060D-08
    -.137862885400D-09  .100000000000D+01  .178700000000D+04  .000000000000D+00
     .340000000000D+01  .000000000000D+00 -.605359673500D-08  .590000000000D+02
     .244806000000D+06  .400000000000D+01
27 14  4  8 22  0  0.0 -.200537033379D-04  .568434188608D-12  .000000000000D+00
     .390000000000D+02 -.714375000000D+02  .464662212189D-08  .580103092079D+00
    -.370852649212D-05  .107656815089D-02  .598840415478D-05  .515367298889D+04
     .252000000000D+06  .204890966415D-07 -.187335535428D+01  .558793544769D-08
     .962649215095D+00  .259500000000D+03  .519505909221D-01 -.824962934446D-08
    -.276440086268D-09  .100000000000D+01  .178700000000D+04  .000000000000D+00
     .240000000000D+01  .000000000000D+00  .186264514923D-08  .390000000000D+02
     .244806000000D+06  .400000000000D+01
